{
  "type": "FeatureCollection",
  "features": [
    {
      "type": "Feature",
      "properties": {
        "norad_id": 43823,
        "name": "GEO-KOMPSAT-2A",
        "group": "weather",
        "lat": 0.014481926288533328,
        "lon": -76.20437755770548,
        "alt_km": 35788.14108878519,
        "timestamp": "2025-12-27T03:58:43.824599+00:00",
        "meta_object_name": "GEO-KOMPSAT-2A",
        "meta_object_id": "2018-100A",
        "meta_epoch": "2025-12-25T12:13:38.614080",
        "meta_mean_motion": 1.00268534,
        "meta_eccentricity": 2.51e-05,
        "meta_inclination": 0.0434,
        "meta_ra_of_asc_node": 172.7377,
        "meta_arg_of_pericenter": 259.9479,
        "meta_mean_anomaly": 333.2359,
        "meta_ephemeris_type": 0,
        "meta_classification_type": "U",
        "meta_norad_cat_id": 43823,
        "meta_element_set_no": 999,
        "meta_rev_at_epoch": 2588,
        "meta_bstar": 0,
        "meta_mean_motion_dot": -3.22e-06,
        "meta_mean_motion_ddot": 0,
        "tle_line1": "1 43823U 18100A   25359.50947470 -.00000322  00000+0  00000+0 0  9996",
        "tle_line2": "2 43823   0.0434 172.7377 0000251 259.9479 333.2359  1.00268534 25880"
      },
      "geometry": {
        "type": "Point",
        "coordinates": [
          -76.20437755770548,
          0.014481926288533328
        ]
      }
    },
    {
      "type": "Feature",
      "properties": {
        "norad_id": 44387,
        "name": "METEOR-M2 2",
        "group": "weather",
        "lat": 37.00403825298169,
        "lon": 167.85349647449456,
        "alt_km": 806.9051716123213,
        "timestamp": "2025-12-27T03:58:43.824609+00:00",
        "meta_object_name": "METEOR-M2 2",
        "meta_object_id": "2019-038A",
        "meta_epoch": "2025-12-26T20:34:07.485312",
        "meta_mean_motion": 14.24297739,
        "meta_eccentricity": 0.0001857,
        "meta_inclination": 98.8992,
        "meta_ra_of_asc_node": 340.7593,
        "meta_arg_of_pericenter": 123.0279,
        "meta_mean_anomaly": 237.1078,
        "meta_ephemeris_type": 0,
        "meta_classification_type": "U",
        "meta_norad_cat_id": 44387,
        "meta_element_set_no": 999,
        "meta_rev_at_epoch": 33676,
        "meta_bstar": 0.00013972,
        "meta_mean_motion_dot": 2.77e-06,
        "meta_mean_motion_ddot": 0,
        "tle_line1": "1 44387U 19038A   25360.85703108  .00000277  00000+0  13972-3 0  9995",
        "tle_line2": "2 44387  98.8992 340.7593 0001857 123.0279 237.1078 14.24297739336760"
      },
      "geometry": {
        "type": "Point",
        "coordinates": [
          167.85349647449456,
          37.00403825298169
        ]
      }
    },
    {
      "type": "Feature",
      "properties": {
        "norad_id": 47719,
        "name": "ARKTIKA-M 1",
        "group": "weather",
        "lat": 58.29578177036708,
        "lon": 136.97901530777244,
        "alt_km": 34823.64246089,
        "timestamp": "2025-12-27T03:58:43.824621+00:00",
        "meta_object_name": "ARKTIKA-M 1",
        "meta_object_id": "2021-016A",
        "meta_epoch": "2025-12-26T00:48:12.402432",
        "meta_mean_motion": 2.00630537,
        "meta_eccentricity": 0.72108,
        "meta_inclination": 63.1768,
        "meta_ra_of_asc_node": 82.1795,
        "meta_arg_of_pericenter": 269.1716,
        "meta_mean_anomaly": 15.5344,
        "meta_ephemeris_type": 0,
        "meta_classification_type": "U",
        "meta_norad_cat_id": 47719,
        "meta_element_set_no": 999,
        "meta_rev_at_epoch": 3531,
        "meta_bstar": 0,
        "meta_mean_motion_dot": -4.1e-07,
        "meta_mean_motion_ddot": 0,
        "tle_line1": "1 47719U 21016A   25360.03347688 -.00000041  00000+0  00000+0 0  9997",
        "tle_line2": "2 47719  63.1768  82.1795 7210800 269.1716  15.5344  2.00630537 35313"
      },
      "geometry": {
        "type": "Point",
        "coordinates": [
          136.97901530777244,
          58.29578177036708
        ]
      }
    },
    {
      "type": "Feature",
      "properties": {
        "norad_id": 49008,
        "name": "FENGYUN 3E",
        "group": "weather",
        "lat": -51.77141805192027,
        "lon": 170.24326418218058,
        "alt_km": 832.1572211239109,
        "timestamp": "2025-12-27T03:58:43.824631+00:00",
        "meta_object_name": "FENGYUN 3E",
        "meta_object_id": "2021-062A",
        "meta_epoch": "2025-12-26T21:48:47.510208",
        "meta_mean_motion": 14.19882056,
        "meta_eccentricity": 0.0001066,
        "meta_inclination": 98.7482,
        "meta_ra_of_asc_node": 1.2618,
        "meta_arg_of_pericenter": 184.2239,
        "meta_mean_anomaly": 175.8928,
        "meta_ephemeris_type": 0,
        "meta_classification_type": "U",
        "meta_norad_cat_id": 49008,
        "meta_element_set_no": 999,
        "meta_rev_at_epoch": 23213,
        "meta_bstar": 5.5578e-05,
        "meta_mean_motion_dot": 7.4e-07,
        "meta_mean_motion_ddot": 0,
        "tle_line1": "1 49008U 21062A   25360.90888322  .00000074  00000+0  55578-4 0  9992",
        "tle_line2": "2 49008  98.7482   1.2618 0001066 184.2239 175.8928 14.19882056232136"
      },
      "geometry": {
        "type": "Point",
        "coordinates": [
          170.24326418218058,
          -51.77141805192027
        ]
      }
    },
    {
      "type": "Feature",
      "properties": {
        "norad_id": 51850,
        "name": "GOES 18",
        "group": "weather",
        "lat": 0.019616128096981954,
        "lon": 18.570206891330127,
        "alt_km": 35786.60158946044,
        "timestamp": "2025-12-27T03:58:43.824643+00:00",
        "meta_object_name": "GOES 18",
        "meta_object_id": "2022-021A",
        "meta_epoch": "2025-12-26T17:30:57.389760",
        "meta_mean_motion": 1.00268759,
        "meta_eccentricity": 3.98e-05,
        "meta_inclination": 0.0378,
        "meta_ra_of_asc_node": 210.115,
        "meta_arg_of_pericenter": 88.325,
        "meta_mean_anomaly": 282.7644,
        "meta_ephemeris_type": 0,
        "meta_classification_type": "U",
        "meta_norad_cat_id": 51850,
        "meta_element_set_no": 999,
        "meta_rev_at_epoch": 486,
        "meta_bstar": 0,
        "meta_mean_motion_dot": 1.19e-06,
        "meta_mean_motion_ddot": 0,
        "tle_line1": "1 51850U 22021A   25360.72983090  .00000119  00000+0  00000+0 0  9999",
        "tle_line2": "2 51850   0.0378 210.1150 0000398  88.3250 282.7644  1.00268759  4864"
      },
      "geometry": {
        "type": "Point",
        "coordinates": [
          18.570206891330127,
          0.019616128096981954
        ]
      }
    },
    {
      "type": "Feature",
      "properties": {
        "norad_id": 54234,
        "name": "NOAA 21 (JPSS-2)",
        "group": "weather",
        "lat": -40.06958611795413,
        "lon": 109.85342767468568,
        "alt_km": 834.3542350519228,
        "timestamp": "2025-12-27T03:58:43.824653+00:00",
        "meta_object_name": "NOAA 21 (JPSS-2)",
        "meta_object_id": "2022-150A",
        "meta_epoch": "2025-12-26T20:10:35.012928",
        "meta_mean_motion": 14.19528039,
        "meta_eccentricity": 0.0001559,
        "meta_inclination": 98.7479,
        "meta_ra_of_asc_node": 296.9742,
        "meta_arg_of_pericenter": 8.2407,
        "meta_mean_anomaly": 351.8795,
        "meta_ephemeris_type": 0,
        "meta_classification_type": "U",
        "meta_norad_cat_id": 54234,
        "meta_element_set_no": 999,
        "meta_rev_at_epoch": 16209,
        "meta_bstar": 7.2691e-05,
        "meta_mean_motion_dot": 1.09e-06,
        "meta_mean_motion_ddot": 0,
        "tle_line1": "1 54234U 22150A   25360.84068302  .00000109  00000+0  72691-4 0  9993",
        "tle_line2": "2 54234  98.7479 296.9742 0001559   8.2407 351.8795 14.19528039162092"
      },
      "geometry": {
        "type": "Point",
        "coordinates": [
          109.85342767468568,
          -40.06958611795413
        ]
      }
    },
    {
      "type": "Feature",
      "properties": {
        "norad_id": 54743,
        "name": "METEOSAT-12 (MTG-I1)",
        "group": "weather",
        "lat": 0.5529899445722171,
        "lon": 155.23304190840696,
        "alt_km": 35789.02836340559,
        "timestamp": "2025-12-27T03:58:43.824664+00:00",
        "meta_object_name": "METEOSAT-12 (MTG-I1)",
        "meta_object_id": "2022-170C",
        "meta_epoch": "2025-12-26T08:51:38.739168",
        "meta_mean_motion": 1.00270911,
        "meta_eccentricity": 0.0001715,
        "meta_inclination": 0.7011,
        "meta_ra_of_asc_node": 25.8801,
        "meta_arg_of_pericenter": 242.0428,
        "meta_mean_anomaly": 319.779,
        "meta_ephemeris_type": 0,
        "meta_classification_type": "U",
        "meta_norad_cat_id": 54743,
        "meta_element_set_no": 999,
        "meta_rev_at_epoch": 1124,
        "meta_bstar": 0,
        "meta_mean_motion_dot": 1.4e-07,
        "meta_mean_motion_ddot": 0,
        "tle_line1": "1 54743U 22170C   25360.36919837  .00000014  00000+0  00000+0 0  9990",
        "tle_line2": "2 54743   0.7011  25.8801 0001715 242.0428 319.7790  1.00270911 11249"
      },
      "geometry": {
        "type": "Point",
        "coordinates": [
          155.23304190840696,
          0.5529899445722171
        ]
      }
    }
  ]
}